CCSDS_OMM_VERS = 2.0
CREATION_DATE  = 
ORIGINATOR     = 

OBJECT_NAME    = STARLINK-37018
OBJECT_ID      = 2026-044C
CENTER_NAME    = EARTH
REF_FRAME      = TEME
TIME_SYSTEM    = UTC
MEAN_ELEMENT_THEORY = SGP/SGP4

EPOCH          = 2026-03-14T06:00:02.000160
MEAN_MOTION    = 16.02207917
ECCENTRICITY   = .00012628
INCLINATION    = 97.2824
RA_OF_ASC_NODE = 33.4563
ARG_OF_PERICENTER = 102.1740
MEAN_ANOMALY   = 42.1564

EPHEMERIS_TYPE = 0
CLASSIFICATION_TYPE = U
NORAD_CAT_ID   = 68103
ELEMENT_SET_NO = 999
REV_AT_EPOCH   = 208
BSTAR          = -.25192974E-2
MEAN_MOTION_DOT = -.1439052E-1
MEAN_MOTION_DDOT = .65929205E-3

CCSDS_OMM_VERS = 2.0
CREATION_DATE  = 
ORIGINATOR     = 

OBJECT_NAME    = STARLINK-37041
OBJECT_ID      = 2026-044D
CENTER_NAME    = EARTH
REF_FRAME      = TEME
TIME_SYSTEM    = UTC
MEAN_ELEMENT_THEORY = SGP/SGP4

EPOCH          = 2026-03-14T06:00:02.000160
MEAN_MOTION    = 16.02484068
ECCENTRICITY   = .00011588
INCLINATION    = 97.2823
RA_OF_ASC_NODE = 33.4579
ARG_OF_PERICENTER = 106.0710
MEAN_ANOMALY   = 41.5983

EPHEMERIS_TYPE = 0
CLASSIFICATION_TYPE = U
NORAD_CAT_ID   = 68104
ELEMENT_SET_NO = 999
REV_AT_EPOCH   = 208
BSTAR          = -.24877321E-2
MEAN_MOTION_DOT = -.1443971E-1
MEAN_MOTION_DDOT = .66561368E-3

CCSDS_OMM_VERS = 2.0
CREATION_DATE  = 
ORIGINATOR     = 

OBJECT_NAME    = STARLINK-37021
OBJECT_ID      = 2026-044E
CENTER_NAME    = EARTH
REF_FRAME      = TEME
TIME_SYSTEM    = UTC
MEAN_ELEMENT_THEORY = SGP/SGP4

EPOCH          = 2026-03-14T06:00:02.000160
MEAN_MOTION    = 16.02595115
ECCENTRICITY   = .00011567
INCLINATION    = 97.2820
RA_OF_ASC_NODE = 33.4581
ARG_OF_PERICENTER = 98.4464
MEAN_ANOMALY   = 50.6268

EPHEMERIS_TYPE = 0
CLASSIFICATION_TYPE = U
NORAD_CAT_ID   = 68105
ELEMENT_SET_NO = 999
REV_AT_EPOCH   = 208
BSTAR          = -.24564717E-2
MEAN_MOTION_DOT = -.1435198E-1
MEAN_MOTION_DDOT = .65898384E-3

CCSDS_OMM_VERS = 2.0
CREATION_DATE  = 
ORIGINATOR     = 

OBJECT_NAME    = STARLINK-37024
OBJECT_ID      = 2026-044F
CENTER_NAME    = EARTH
REF_FRAME      = TEME
TIME_SYSTEM    = UTC
MEAN_ELEMENT_THEORY = SGP/SGP4

EPOCH          = 2026-03-14T06:00:02.000160
MEAN_MOTION    = 16.02723016
ECCENTRICITY   = .00012201
INCLINATION    = 97.2821
RA_OF_ASC_NODE = 33.4589
ARG_OF_PERICENTER = 106.1010
MEAN_ANOMALY   = 44.5678

EPHEMERIS_TYPE = 0
CLASSIFICATION_TYPE = U
NORAD_CAT_ID   = 68106
ELEMENT_SET_NO = 999
REV_AT_EPOCH   = 208
BSTAR          = -.2433029E-2
MEAN_MOTION_DOT = -.1432217E-1
MEAN_MOTION_DDOT = .65742575E-3

CCSDS_OMM_VERS = 2.0
CREATION_DATE  = 
ORIGINATOR     = 

OBJECT_NAME    = STARLINK-37005
OBJECT_ID      = 2026-044G
CENTER_NAME    = EARTH
REF_FRAME      = TEME
TIME_SYSTEM    = UTC
MEAN_ELEMENT_THEORY = SGP/SGP4

EPOCH          = 2026-03-14T06:00:02.000160
MEAN_MOTION    = 16.02342914
ECCENTRICITY   = .00012479
INCLINATION    = 97.2823
RA_OF_ASC_NODE = 33.4565
ARG_OF_PERICENTER = 104.4531
MEAN_ANOMALY   = 41.5326

EPHEMERIS_TYPE = 0
CLASSIFICATION_TYPE = U
NORAD_CAT_ID   = 68107
ELEMENT_SET_NO = 999
REV_AT_EPOCH   = 208
BSTAR          = -.25007995E-2
MEAN_MOTION_DOT = -.1439735E-1
MEAN_MOTION_DDOT = .6609073E-3

CCSDS_OMM_VERS = 2.0
CREATION_DATE  = 
ORIGINATOR     = 

OBJECT_NAME    = STARLINK-37017
OBJECT_ID      = 2026-044H
CENTER_NAME    = EARTH
REF_FRAME      = TEME
TIME_SYSTEM    = UTC
MEAN_ELEMENT_THEORY = SGP/SGP4

EPOCH          = 2026-03-14T06:00:02.000160
MEAN_MOTION    = 16.02870170
ECCENTRICITY   = .00011381
INCLINATION    = 97.2822
RA_OF_ASC_NODE = 33.4599
ARG_OF_PERICENTER = 103.2602
MEAN_ANOMALY   = 49.2361

EPHEMERIS_TYPE = 0
CLASSIFICATION_TYPE = U
NORAD_CAT_ID   = 68108
ELEMENT_SET_NO = 999
REV_AT_EPOCH   = 208
BSTAR          = -.24148437E-2
MEAN_MOTION_DOT = -.143378E-1
MEAN_MOTION_DDOT = .65989466E-3

CCSDS_OMM_VERS = 2.0
CREATION_DATE  = 
ORIGINATOR     = 

OBJECT_NAME    = STARLINK-36833
OBJECT_ID      = 2026-044J
CENTER_NAME    = EARTH
REF_FRAME      = TEME
TIME_SYSTEM    = UTC
MEAN_ELEMENT_THEORY = SGP/SGP4

EPOCH          = 2026-03-14T06:00:02.000160
MEAN_MOTION    = 16.03139943
ECCENTRICITY   = .00012419
INCLINATION    = 97.2816
RA_OF_ASC_NODE = 33.4610
ARG_OF_PERICENTER = 107.7836
MEAN_ANOMALY   = 48.0290

EPHEMERIS_TYPE = 0
CLASSIFICATION_TYPE = U
NORAD_CAT_ID   = 68109
ELEMENT_SET_NO = 999
REV_AT_EPOCH   = 213
BSTAR          = -.23814859E-2
MEAN_MOTION_DOT = -.143654E-1
MEAN_MOTION_DDOT = .66435604E-3

CCSDS_OMM_VERS = 2.0
CREATION_DATE  = 
ORIGINATOR     = 

OBJECT_NAME    = STARLINK-36830
OBJECT_ID      = 2026-044K
CENTER_NAME    = EARTH
REF_FRAME      = TEME
TIME_SYSTEM    = UTC
MEAN_ELEMENT_THEORY = SGP/SGP4

EPOCH          = 2026-03-14T06:00:02.000160
MEAN_MOTION    = 16.03022877
ECCENTRICITY   = .00012816
INCLINATION    = 97.2818
RA_OF_ASC_NODE = 33.4605
ARG_OF_PERICENTER = 112.1049
MEAN_ANOMALY   = 42.2488

EPHEMERIS_TYPE = 0
CLASSIFICATION_TYPE = U
NORAD_CAT_ID   = 68110
ELEMENT_SET_NO = 999
REV_AT_EPOCH   = 213
BSTAR          = -.24116302E-2
MEAN_MOTION_DOT = -.1444661E-1
MEAN_MOTION_DDOT = .67041966E-3

CCSDS_OMM_VERS = 2.0
CREATION_DATE  = 
ORIGINATOR     = 

OBJECT_NAME    = STARLINK-36791
OBJECT_ID      = 2026-044L
CENTER_NAME    = EARTH
REF_FRAME      = TEME
TIME_SYSTEM    = UTC
MEAN_ELEMENT_THEORY = SGP/SGP4

EPOCH          = 2026-03-14T06:00:02.000160
MEAN_MOTION    = 16.03289558
ECCENTRICITY   = .00012579
INCLINATION    = 97.2817
RA_OF_ASC_NODE = 33.4620
ARG_OF_PERICENTER = 97.2188
MEAN_ANOMALY   = 60.3438

EPHEMERIS_TYPE = 0
CLASSIFICATION_TYPE = U
NORAD_CAT_ID   = 68111
ELEMENT_SET_NO = 999
REV_AT_EPOCH   = 208
BSTAR          = -.23908926E-2
MEAN_MOTION_DOT = -.1454764E-1
MEAN_MOTION_DDOT = .68129544E-3

CCSDS_OMM_VERS = 2.0
CREATION_DATE  = 
ORIGINATOR     = 

OBJECT_NAME    = STARLINK-36893
OBJECT_ID      = 2026-044M
CENTER_NAME    = EARTH
REF_FRAME      = TEME
TIME_SYSTEM    = UTC
MEAN_ELEMENT_THEORY = SGP/SGP4

EPOCH          = 2026-03-14T06:00:02.000160
MEAN_MOTION    = 16.03415211
ECCENTRICITY   = .00012249
INCLINATION    = 97.2816
RA_OF_ASC_NODE = 33.4623
ARG_OF_PERICENTER = 103.8476
MEAN_ANOMALY   = 55.2583

EPHEMERIS_TYPE = 0
CLASSIFICATION_TYPE = U
NORAD_CAT_ID   = 68112
ELEMENT_SET_NO = 999
REV_AT_EPOCH   = 213
BSTAR          = -.23720005E-2
MEAN_MOTION_DOT = -.1454007E-1
MEAN_MOTION_DDOT = .68164851E-3

CCSDS_OMM_VERS = 2.0
CREATION_DATE  = 
ORIGINATOR     = 

OBJECT_NAME    = STARLINK-36937
OBJECT_ID      = 2026-044N
CENTER_NAME    = EARTH
REF_FRAME      = TEME
TIME_SYSTEM    = UTC
MEAN_ELEMENT_THEORY = SGP/SGP4

EPOCH          = 2026-03-14T06:00:02.000160
MEAN_MOTION    = 16.03681575
ECCENTRICITY   = .00012527
INCLINATION    = 97.2818
RA_OF_ASC_NODE = 33.4638
ARG_OF_PERICENTER = 106.7206
MEAN_ANOMALY   = 55.6327

EPHEMERIS_TYPE = 0
CLASSIFICATION_TYPE = U
NORAD_CAT_ID   = 68113
ELEMENT_SET_NO = 999
REV_AT_EPOCH   = 208
BSTAR          = -.23404779E-2
MEAN_MOTION_DOT = -.1457431E-1
MEAN_MOTION_DDOT = .68680104E-3

CCSDS_OMM_VERS = 2.0
CREATION_DATE  = 
ORIGINATOR     = 

OBJECT_NAME    = STARLINK-36229
OBJECT_ID      = 2026-044P
CENTER_NAME    = EARTH
REF_FRAME      = TEME
TIME_SYSTEM    = UTC
MEAN_ELEMENT_THEORY = SGP/SGP4

EPOCH          = 2026-03-14T06:00:02.000160
MEAN_MOTION    = 16.03556164
ECCENTRICITY   = .00012398
INCLINATION    = 97.2811
RA_OF_ASC_NODE = 33.4628
ARG_OF_PERICENTER = 109.6964
MEAN_ANOMALY   = 51.1243

EPHEMERIS_TYPE = 0
CLASSIFICATION_TYPE = U
NORAD_CAT_ID   = 68114
ELEMENT_SET_NO = 999
REV_AT_EPOCH   = 213
BSTAR          = -.23569845E-2
MEAN_MOTION_DOT = -.1456856E-1
MEAN_MOTION_DDOT = .68527484E-3

