STARLINK-37018          
1 68103U 26044C   26073.25002315 -.01439052  65929-3 -25193-2 0  9992
2 68103  97.2824  33.4563 0001262 102.1740  42.1564 16.02207917  2089
STARLINK-37041          
1 68104U 26044D   26073.25002315 -.01443971  66561-3 -24877-2 0  9999
2 68104  97.2823  33.4579 0001158 106.0710  41.5983 16.02484068  2082
STARLINK-37021          
1 68105U 26044E   26073.25002315 -.01435198  65898-3 -24565-2 0  9998
2 68105  97.2820  33.4581 0001156  98.4464  50.6268 16.02595115  2084
STARLINK-37024          
1 68106U 26044F   26073.25002315 -.01432217  65743-3 -24330-2 0  9997
2 68106  97.2821  33.4589 0001220 106.1010  44.5678 16.02723016  2080
STARLINK-37005          
1 68107U 26044G   26073.25002315 -.01439735  66091-3 -25008-2 0  9990
2 68107  97.2823  33.4565 0001247 104.4531  41.5326 16.02342914  2086
STARLINK-37017          
1 68108U 26044H   26073.25002315 -.01433780  65989-3 -24148-2 0  9994
2 68108  97.2822  33.4599 0001138 103.2602  49.2361 16.02870170  2082
STARLINK-36833          
1 68109U 26044J   26073.25002315 -.01436540  66436-3 -23815-2 0  9990
2 68109  97.2816  33.4610 0001241 107.7836  48.0290 16.03139943  2134
STARLINK-36830          
1 68110U 26044K   26073.25002315 -.01444661  67042-3 -24116-2 0  9994
2 68110  97.2818  33.4605 0001281 112.1049  42.2488 16.03022877  2134
STARLINK-36791          
1 68111U 26044L   26073.25002315 -.01454764  68130-3 -23909-2 0  9998
2 68111  97.2817  33.4620 0001257  97.2188  60.3438 16.03289558  2082
STARLINK-36893          
1 68112U 26044M   26073.25002315 -.01454007  68165-3 -23720-2 0  9998
2 68112  97.2816  33.4623 0001224 103.8476  55.2583 16.03415211  2130
STARLINK-36937          
1 68113U 26044N   26073.25002315 -.01457431  68680-3 -23405-2 0  9995
2 68113  97.2818  33.4638 0001252 106.7206  55.6327 16.03681575  2085
STARLINK-36229          
1 68114U 26044P   26073.25002315 -.01456856  68527-3 -23570-2 0  9999
2 68114  97.2811  33.4628 0001239 109.6964  51.1243 16.03556164  2135
